{"type": "FeatureCollection", "features": [ {"type": "Feature", "properties": {"norad_id": 34117, "name": "COSMOS 2251 DEB", "group": "cosmos-2251-debris", "lat": 39.34326848615761, "lon": -19.158256250007902, "alt_km": 715.7943604851325, "timestamp": "2025-12-21T16:47:55.132676+00:00", "meta": {"OBJECT_NAME": "COSMOS 2251 DEB", "OBJECT_ID": "1993-036KN", "EPOCH": "2025-12-21T08:16:23.661984", "MEAN_MOTION": 14.40043424, "ECCENTRICITY": 0.005491, "INCLINATION": 74.0394, "RA_OF_ASC_NODE": 327.9296, "ARG_OF_PERICENTER": 41.8602, "MEAN_ANOMALY": 318.6731, "EPHEMERIS_TYPE": 0, "CLASSIFICATION_TYPE": "U", "NORAD_CAT_ID": 34117, "ELEMENT_SET_NO": 999, "REV_AT_EPOCH": 88247, "BSTAR": 0.00052982, "MEAN_MOTION_DOT": 1.674e-05, "MEAN_MOTION_DDOT": 0}, "tle": {"line1": "1 34117U 93036KN  25355.34471831  .00001674  00000+0  52982-3 0  9994", "line2": "2 34117  74.0394 327.9296 0054910  41.8602 318.6731 14.40043424882477"}}, "geometry": {"type": "Point", "coordinates": [-19.158256250007902, 39.34326848615761]}}, {"type": "Feature", "properties": {"norad_id": 34118, "name": "COSMOS 2251 DEB", "group": "cosmos-2251-debris", "lat": 51.72364473559178, "lon": -107.43655561445847, "alt_km": 537.9749979426288, "timestamp": "2025-12-21T16:47:55.132686+00:00", "meta": {"OBJECT_NAME": "COSMOS 2251 DEB", "OBJECT_ID": "1993-036KP", "EPOCH": "2025-12-21T09:01:56.253792", "MEAN_MOTION": 14.94207231, "ECCENTRICITY": 0.0060038, "INCLINATION": 73.9515, "RA_OF_ASC_NODE": 231.823, "ARG_OF_PERICENTER": 59.8585, "MEAN_ANOMALY": 55.0795, "EPHEMERIS_TYPE": 0, "CLASSIFICATION_TYPE": "U", "NORAD_CAT_ID": 34118, "ELEMENT_SET_NO": 999, "REV_AT_EPOCH": 89305, "BSTAR": 0.001064, "MEAN_MOTION_DOT": 0.00011798, "MEAN_MOTION_DDOT": 0}, "tle": {"line1": "1 34118U 93036KP  25355.37634553  .00011798  00000+0  10640-2 0  9992", "line2": "2 34118  73.9515 231.8230 0060038  59.8585  55.0795 14.94207231893054"}}, "geometry": {"type": "Point", "coordinates": [-107.43655561445847, 51.72364473559178]}}, {"type": "Feature", "properties": {"norad_id": 34120, "name": "COSMOS 2251 DEB", "group": "cosmos-2251-debris", "lat": -73.60385939941617, "lon": 98.05724686407594, "alt_km": 969.6866359866053, "timestamp": "2025-12-21T16:47:55.132696+00:00", "meta": {"OBJECT_NAME": "COSMOS 2251 DEB", "OBJECT_ID": "1993-036KR", "EPOCH": "2025-12-21T00:50:49.320384", "MEAN_MOTION": 13.9869252, "ECCENTRICITY": 0.01823108, "INCLINATION": 73.9903, "RA_OF_ASC_NODE": 201.8516, "ARG_OF_PERICENTER": 27.692, "MEAN_ANOMALY": 135.1651, "EPHEMERIS_TYPE": 0, "CLASSIFICATION_TYPE": "U", "NORAD_CAT_ID": 34120, "ELEMENT_SET_NO": 999, "REV_AT_EPOCH": 86096, "BSTAR": 0.00023924582, "MEAN_MOTION_DOT": 3.73e-06, "MEAN_MOTION_DDOT": 0}, "tle": {"line1": "1 34120U 93036KR  25355.03529306  .00000373  00000+0  23925-3 0  9995", "line2": "2 34120  73.9903 201.8516 0182310  27.6920 135.1651 13.98692520860963"}}, "geometry": {"type": "Point", "coordinates": [98.05724686407594, -73.60385939941617]}}, {"type": "Feature", "properties": {"norad_id": 34121, "name": "COSMOS 2251 DEB", "group": "cosmos-2251-debris", "lat": -72.38023758621118, "lon": -33.513180927737814, "alt_km": 766.0465984541806, "timestamp": "2025-12-21T16:47:55.132706+00:00", "meta": {"OBJECT_NAME": "COSMOS 2251 DEB", "OBJECT_ID": "1993-036KS", "EPOCH": "2025-12-21T12:09:06.511104", "MEAN_MOTION": 13.9195935, "ECCENTRICITY": 0.0240853, "INCLINATION": 73.9924, "RA_OF_ASC_NODE": 82.1472, "ARG_OF_PERICENTER": 285.7607, "MEAN_ANOMALY": 87.9779, "EPHEMERIS_TYPE": 0, "CLASSIFICATION_TYPE": "U", "NORAD_CAT_ID": 34121, "ELEMENT_SET_NO": 999, "REV_AT_EPOCH": 85247, "BSTAR": 0.00098505, "MEAN_MOTION_DOT": 1.567e-05, "MEAN_MOTION_DDOT": 0}, "tle": {"line1": "1 34121U 93036KS  25355.50632536  .00001567  00000+0  98505-3 0  9990", "line2": "2 34121  73.9924  82.1472 0240853 285.7607  87.9779 13.91959350852476"}}, "geometry": {"type": "Point", "coordinates": [-33.513180927737814, -72.38023758621118]}}, {"type": "Feature", "properties": {"norad_id": 34122, "name": "COSMOS 2251 DEB", "group": "cosmos-2251-debris", "lat": -8.449553709866274, "lon": 98.95772681340661, "alt_km": 620.6307658654305, "timestamp": "2025-12-21T16:47:55.132716+00:00", "meta": {"OBJECT_NAME": "COSMOS 2251 DEB", "OBJECT_ID": "1993-036KT", "EPOCH": "2025-12-21T08:53:52.152000", "MEAN_MOTION": 14.65139846, "ECCENTRICITY": 0.0084809, "INCLINATION": 74.0362, "RA_OF_ASC_NODE": 102.028, "ARG_OF_PERICENTER": 356.4542, "MEAN_ANOMALY": 59.2892, "EPHEMERIS_TYPE": 0, "CLASSIFICATION_TYPE": "U", "NORAD_CAT_ID": 34122, "ELEMENT_SET_NO": 999, "REV_AT_EPOCH": 88811, "BSTAR": 0.00074465, "MEAN_MOTION_DOT": 4.19e-05, "MEAN_MOTION_DDOT": 0}, "tle": {"line1": "1 34122U 93036KT  25355.37074250  .00004190  00000+0  74465-3 0  9993", "line2": "2 34122  74.0362 102.0280 0084809 356.4542  59.2892 14.65139846888115"}}, "geometry": {"type": "Point", "coordinates": [98.95772681340661, -8.449553709866274]}}, {"type": "Feature", "properties": {"norad_id": 34127, "name": "COSMOS 2251 DEB", "group": "cosmos-2251-debris", "lat": -72.62514095918135, "lon": -87.34504606818915, "alt_km": 727.1080891623142, "timestamp": "2025-12-21T16:47:55.132726+00:00", "meta": {"OBJECT_NAME": "COSMOS 2251 DEB", "OBJECT_ID": "1993-036KY", "EPOCH": "2025-12-21T04:06:31.490784", "MEAN_MOTION": 14.31614218, "ECCENTRICITY": 0.01148477, "INCLINATION": 74.1791, "RA_OF_ASC_NODE": 28.6253, "ARG_OF_PERICENTER": 226.9764, "MEAN_ANOMALY": 191.0133, "EPHEMERIS_TYPE": 0, "CLASSIFICATION_TYPE": "U", "NORAD_CAT_ID": 34127, "ELEMENT_SET_NO": 999, "REV_AT_EPOCH": 86892, "BSTAR": 0.0010319829, "MEAN_MOTION_DOT": 2.93e-05, "MEAN_MOTION_DDOT": 0}, "tle": {"line1": "1 34127U 93036KY  25355.17119781  .00002930  00000+0  10320-2 0  9994", "line2": "2 34127  74.1791  28.6253 0114847 226.9764 191.0133 14.31614218868927"}}, "geometry": {"type": "Point", "coordinates": [-87.34504606818915, -72.62514095918135]}}, {"type": "Feature", "properties": {"norad_id": 34128, "name": "COSMOS 2251 DEB", "group": "cosmos-2251-debris", "lat": -15.469267993812029, "lon": 102.98785572840464, "alt_km": 584.4025031149786, "timestamp": "2025-12-21T16:47:55.132736+00:00", "meta": {"OBJECT_NAME": "COSMOS 2251 DEB", "OBJECT_ID": "1993-036KZ", "EPOCH": "2025-12-21T05:24:07.903008", "MEAN_MOTION": 15.01462235, "ECCENTRICITY": 0.0025983, "INCLINATION": 73.9994, "RA_OF_ASC_NODE": 279.402, "ARG_OF_PERICENTER": 29.647, "MEAN_ANOMALY": 120.66, "EPHEMERIS_TYPE": 0, "CLASSIFICATION_TYPE": "U", "NORAD_CAT_ID": 34128, "ELEMENT_SET_NO": 999, "REV_AT_EPOCH": 89294, "BSTAR": 0.0011489, "MEAN_MOTION_DOT": 0.00014946, "MEAN_MOTION_DDOT": 0}, "tle": {"line1": "1 34128U 93036KZ  25355.22509147  .00014946  00000+0  11489-2 0  9997", "line2": "2 34128  73.9994 279.4020 0025983  29.6470 120.6600 15.01462235892946"}}, "geometry": {"type": "Point", "coordinates": [102.98785572840464, -15.469267993812029]}}, {"type": "Feature", "properties": {"norad_id": 34129, "name": "COSMOS 2251 DEB", "group": "cosmos-2251-debris", "lat": 9.956986498200802, "lon": -35.12875414798929, "alt_km": 623.3864434260586, "timestamp": "2025-12-21T16:47:55.132746+00:00", "meta": {"OBJECT_NAME": "COSMOS 2251 DEB", "OBJECT_ID": "1993-036LA", "EPOCH": "2025-12-21T08:37:04.702080", "MEAN_MOTION": 14.75876218, "ECCENTRICITY": 0.0033338, "INCLINATION": 74.0354, "RA_OF_ASC_NODE": 322.6574, "ARG_OF_PERICENTER": 41.4788, "MEAN_ANOMALY": 318.8907, "EPHEMERIS_TYPE": 0, "CLASSIFICATION_TYPE": "U", "NORAD_CAT_ID": 34129, "ELEMENT_SET_NO": 999, "REV_AT_EPOCH": 61425, "BSTAR": 0.00108, "MEAN_MOTION_DOT": 7.457e-05, "MEAN_MOTION_DDOT": 0}, "tle": {"line1": "1 34129U 93036LA  25355.35908220  .00007457  00000+0  10800-2 0  9992", "line2": "2 34129  74.0354 322.6574 0033338  41.4788 318.8907 14.75876218614258"}}, "geometry": {"type": "Point", "coordinates": [-35.12875414798929, 9.956986498200802]}}, {"type": "Feature", "properties": {"norad_id": 34136, "name": "COSMOS 2251 DEB", "group": "cosmos-2251-debris", "lat": -52.93155405287301, "lon": 2.667873566118416, "alt_km": 691.0170308403376, "timestamp": "2025-12-21T16:47:55.132756+00:00", "meta": {"OBJECT_NAME": "COSMOS 2251 DEB", "OBJECT_ID": "1993-036LH", "EPOCH": "2025-12-21T09:01:35.897952", "MEAN_MOTION": 14.80130629, "ECCENTRICITY": 0.0085199, "INCLINATION": 74.0198, "RA_OF_ASC_NODE": 25.5991, "ARG_OF_PERICENTER": 146.2238, "MEAN_ANOMALY": 232.5672, "EPHEMERIS_TYPE": 0, "CLASSIFICATION_TYPE": "U", "NORAD_CAT_ID": 34136, "ELEMENT_SET_NO": 999, "REV_AT_EPOCH": 90138, "BSTAR": 0.00027678, "MEAN_MOTION_DOT": 2.198e-05, "MEAN_MOTION_DDOT": 0}, "tle": {"line1": "1 34136U 93036LH  25355.37610993  .00002198  00000+0  27678-3 0  9998", "line2": "2 34136  74.0198  25.5991 0085199 146.2238 232.5672 14.80130629901389"}}, "geometry": {"type": "Point", "coordinates": [2.667873566118416, -52.93155405287301]}}, {"type": "Feature", "properties": {"norad_id": 34139, "name": "COSMOS 2251 DEB", "group": "cosmos-2251-debris", "lat": 63.707698863590096, "lon": -87.59307084873636, "alt_km": 705.2976071786452, "timestamp": "2025-12-21T16:47:55.132766+00:00", "meta": {"OBJECT_NAME": "COSMOS 2251 DEB", "OBJECT_ID": "1993-036LL", "EPOCH": "2025-12-20T22:27:19.402272", "MEAN_MOTION": 14.5915977, "ECCENTRICITY": 0.0042514, "INCLINATION": 74.0303, "RA_OF_ASC_NODE": 238.4405, "ARG_OF_PERICENTER": 308.1952, "MEAN_ANOMALY": 67.0502, "EPHEMERIS_TYPE": 0, "CLASSIFICATION_TYPE": "U", "NORAD_CAT_ID": 34139, "ELEMENT_SET_NO": 999, "REV_AT_EPOCH": 88269, "BSTAR": 0.00082369, "MEAN_MOTION_DOT": 3.901e-05, "MEAN_MOTION_DDOT": 0}, "tle": {"line1": "1 34139U 93036LL  25354.93564123  .00003901  00000+0  82369-3 0  9996", "line2": "2 34139  74.0303 238.4405 0042514 308.1952  67.0502 14.59159770882690"}}, "geometry": {"type": "Point", "coordinates": [-87.59307084873636, 63.707698863590096]}}]}